{"type": "FeatureCollection", "features": [{"type": "Feature", "properties": {"DISTRICT": "Bengaluru Urban", "NAME_2": "Bengaluru Urban"}, "geometry": {"type": "Polygon", "coordinates": [[[77.1, 12.549999999999999], [77.9, 12.549999999999999], [77.9, 13.35], [77.1, 13.35], [77.1, 12.549999999999999]]]}}, {"type": "Feature", "properties": {"DISTRICT": "Bengaluru Rural", "NAME_2": "Bengaluru Rural"}, "geometry": {"type": "Polygon", "coordinates": [[[77.0, 12.799999999999999], [77.80000000000001, 12.799999999999999], [77.80000000000001, 13.6], [77.0, 13.6], [77.0, 12.799999999999999]]]}}, {"type": "Feature", "properties": {"DISTRICT": "Mysuru", "NAME_2": "Mysuru"}, "geometry": {"type": "Polygon", "coordinates": [[[76.25, 11.9], [77.05000000000001, 11.9], [77.05000000000001, 12.700000000000001], [76.25, 12.700000000000001], [76.25, 11.9]]]}}, {"type": "Feature", "properties": {"DISTRICT": "Dharwad", "NAME_2": "Dharwad"}, "geometry": {"type": "Polygon", "coordinates": [[[74.6, 15.049999999999999], [75.4, 15.049999999999999], [75.4, 15.85], [74.6, 15.85], [74.6, 15.049999999999999]]]}}, {"type": "Feature", "properties": {"DISTRICT": "Belagavi", "NAME_2": "Belagavi"}, "geometry": {"type": "Polygon", "coordinates": [[[74.39999999999999, 15.45], [75.2, 15.45], [75.2, 16.25], [74.39999999999999, 16.25], [74.39999999999999, 15.45]]]}}, {"type": "Feature", "properties": {"DISTRICT": "Kalaburagi", "NAME_2": "Kalaburagi"}, "geometry": {"type": "Polygon", "coordinates": [[[76.39999999999999, 16.93], [77.2, 16.93], [77.2, 17.729999999999997], [76.39999999999999, 17.729999999999997], [76.39999999999999, 16.93]]]}}, {"type": "Feature", "properties": {"DISTRICT": "Ballari", "NAME_2": "Ballari"}, "geometry": {"type": "Polygon", "coordinates": [[[76.52, 14.74], [77.32000000000001, 14.74], [77.32000000000001, 15.540000000000001], [76.52, 15.540000000000001], [76.52, 14.74]]]}}, {"type": "Feature", "properties": {"DISTRICT": "Raichur", "NAME_2": "Raichur"}, "geometry": {"type": "Polygon", "coordinates": [[[76.94999999999999, 15.799999999999999], [77.75, 15.799999999999999], [77.75, 16.599999999999998], [76.94999999999999, 16.599999999999998], [76.94999999999999, 15.799999999999999]]]}}, {"type": "Feature", "properties": {"DISTRICT": "Bidar", "NAME_2": "Bidar"}, "geometry": {"type": "Polygon", "coordinates": [[[77.11999999999999, 17.5], [77.92, 17.5], [77.92, 18.299999999999997], [77.11999999999999, 18.299999999999997], [77.11999999999999, 17.5]]]}}, {"type": "Feature", "properties": {"DISTRICT": "Vijayapura", "NAME_2": "Vijayapura"}, "geometry": {"type": "Polygon", "coordinates": [[[75.32, 16.43], [76.12, 16.43], [76.12, 17.229999999999997], [75.32, 17.229999999999997], [75.32, 16.43]]]}}, {"type": "Feature", "properties": {"DISTRICT": "Bagalkot", "NAME_2": "Bagalkot"}, "geometry": {"type": "Polygon", "coordinates": [[[75.3, 15.78], [76.10000000000001, 15.78], [76.10000000000001, 16.58], [75.3, 16.58], [75.3, 15.78]]]}}, {"type": "Feature", "properties": {"DISTRICT": "Gadag", "NAME_2": "Gadag"}, "geometry": {"type": "Polygon", "coordinates": [[[75.22, 15.02], [76.02000000000001, 15.02], [76.02000000000001, 15.82], [75.22, 15.82], [75.22, 15.02]]]}}, {"type": "Feature", "properties": {"DISTRICT": "Haveri", "NAME_2": "Haveri"}, "geometry": {"type": "Polygon", "coordinates": [[[75.0, 14.389999999999999], [75.80000000000001, 14.389999999999999], [75.80000000000001, 15.19], [75.0, 15.19], [75.0, 14.389999999999999]]]}}, {"type": "Feature", "properties": {"DISTRICT": "Uttara Kannada", "NAME_2": "Uttara Kannada"}, "geometry": {"type": "Polygon", "coordinates": [[[74.5, 14.379999999999999], [75.30000000000001, 14.379999999999999], [75.30000000000001, 15.18], [74.5, 15.18], [74.5, 14.379999999999999]]]}}, {"type": "Feature", "properties": {"DISTRICT": "Dakshina Kannada", "NAME_2": "Dakshina Kannada"}, "geometry": {"type": "Polygon", "coordinates": [[[74.6, 12.469999999999999], [75.4, 12.469999999999999], [75.4, 13.27], [74.6, 13.27], [74.6, 12.469999999999999]]]}}, {"type": "Feature", "properties": {"DISTRICT": "Udupi", "NAME_2": "Udupi"}, "geometry": {"type": "Polygon", "coordinates": [[[74.35, 12.94], [75.15, 12.94], [75.15, 13.74], [74.35, 13.74], [74.35, 12.94]]]}}, {"type": "Feature", "properties": {"DISTRICT": "Shivamogga", "NAME_2": "Shivamogga"}, "geometry": {"type": "Polygon", "coordinates": [[[75.16999999999999, 13.53], [75.97, 13.53], [75.97, 14.33], [75.16999999999999, 14.33], [75.16999999999999, 13.53]]]}}, {"type": "Feature", "properties": {"DISTRICT": "Chikkamagaluru", "NAME_2": "Chikkamagaluru"}, "geometry": {"type": "Polygon", "coordinates": [[[75.36999999999999, 12.92], [76.17, 12.92], [76.17, 13.72], [75.36999999999999, 13.72], [75.36999999999999, 12.92]]]}}, {"type": "Feature", "properties": {"DISTRICT": "Hassan", "NAME_2": "Hassan"}, "geometry": {"type": "Polygon", "coordinates": [[[75.69999999999999, 12.6], [76.5, 12.6], [76.5, 13.4], [75.69999999999999, 13.4], [75.69999999999999, 12.6]]]}}, {"type": "Feature", "properties": {"DISTRICT": "Kodagu", "NAME_2": "Kodagu"}, "geometry": {"type": "Polygon", "coordinates": [[[75.38, 12.02], [76.18, 12.02], [76.18, 12.82], [75.38, 12.82], [75.38, 12.02]]]}}, {"type": "Feature", "properties": {"DISTRICT": "Mandya", "NAME_2": "Mandya"}, "geometry": {"type": "Polygon", "coordinates": [[[76.5, 12.12], [77.30000000000001, 12.12], [77.30000000000001, 12.92], [76.5, 12.92], [76.5, 12.12]]]}}, {"type": "Feature", "properties": {"DISTRICT": "Chamarajanagara", "NAME_2": "Chamarajanagara"}, "geometry": {"type": "Polygon", "coordinates": [[[76.6, 11.52], [77.4, 11.52], [77.4, 12.32], [76.6, 12.32], [76.6, 11.52]]]}}, {"type": "Feature", "properties": {"DISTRICT": "Tumakuru", "NAME_2": "Tumakuru"}, "geometry": {"type": "Polygon", "coordinates": [[[76.69999999999999, 12.94], [77.5, 12.94], [77.5, 13.74], [76.69999999999999, 13.74], [76.69999999999999, 12.94]]]}}, {"type": "Feature", "properties": {"DISTRICT": "Chikkaballapura", "NAME_2": "Chikkaballapura"}, "geometry": {"type": "Polygon", "coordinates": [[[77.33, 13.03], [78.13000000000001, 13.03], [78.13000000000001, 13.83], [77.33, 13.83], [77.33, 13.03]]]}}, {"type": "Feature", "properties": {"DISTRICT": "Kolar", "NAME_2": "Kolar"}, "geometry": {"type": "Polygon", "coordinates": [[[77.72999999999999, 12.74], [78.53, 12.74], [78.53, 13.540000000000001], [77.72999999999999, 13.540000000000001], [77.72999999999999, 12.74]]]}}, {"type": "Feature", "properties": {"DISTRICT": "Ramanagara", "NAME_2": "Ramanagara"}, "geometry": {"type": "Polygon", "coordinates": [[[76.89, 12.32], [77.69000000000001, 12.32], [77.69000000000001, 13.120000000000001], [76.89, 13.120000000000001], [76.89, 12.32]]]}}, {"type": "Feature", "properties": {"DISTRICT": "Koppal", "NAME_2": "Koppal"}, "geometry": {"type": "Polygon", "coordinates": [[[75.75, 14.95], [76.55000000000001, 14.95], [76.55000000000001, 15.75], [75.75, 15.75], [75.75, 14.95]]]}}, {"type": "Feature", "properties": {"DISTRICT": "Yadgir", "NAME_2": "Yadgir"}, "geometry": {"type": "Polygon", "coordinates": [[[76.72999999999999, 16.37], [77.53, 16.37], [77.53, 17.169999999999998], [76.72999999999999, 17.169999999999998], [76.72999999999999, 16.37]]]}}, {"type": "Feature", "properties": {"DISTRICT": "Davanagere", "NAME_2": "Davanagere"}, "geometry": {"type": "Polygon", "coordinates": [[[75.52, 14.06], [76.32000000000001, 14.06], [76.32000000000001, 14.860000000000001], [75.52, 14.860000000000001], [75.52, 14.06]]]}}, {"type": "Feature", "properties": {"DISTRICT": "Chitradurga", "NAME_2": "Chitradurga"}, "geometry": {"type": "Polygon", "coordinates": [[[76.0, 13.83], [76.80000000000001, 13.83], [76.80000000000001, 14.63], [76.0, 14.63], [76.0, 13.83]]]}}]}